{"type": "FeatureCollection", "features": [ {"type": "Feature", "properties": {"norad_id": 66464, "name": "STARLINK-35435", "group": "last-30-days", "lat": -6.662507147608802, "lon": 67.06855345696324, "alt_km": 444.66867652646215, "timestamp": "2025-12-12T05:47:27.524663+00:00", "meta": {"OBJECT_NAME": "STARLINK-35435", "OBJECT_ID": "2025-262J", "EPOCH": "2025-12-11T22:00:01.999584", "MEAN_MOTION": 15.40651684, "ECCENTRICITY": 0.0001854, "INCLINATION": 43.0007, "RA_OF_ASC_NODE": 76.1403, "ARG_OF_PERICENTER": 262.1457, "MEAN_ANOMALY": 85.6264, "EPHEMERIS_TYPE": 0, "CLASSIFICATION_TYPE": "U", "NORAD_CAT_ID": 66464, "ELEMENT_SET_NO": 999, "REV_AT_EPOCH": 550, "BSTAR": 0.00032495748, "MEAN_MOTION_DOT": 0.00013273, "MEAN_MOTION_DDOT": 0}, "tle": {"line1": "1 66464U 25262J   25345.91668981  .00013273  00000+0  32496-3 0  9992", "line2": "2 66464  43.0007  76.1403 0001854 262.1457  85.6264 15.40651684  5509"}}, "geometry": {"type": "Point", "coordinates": [67.06855345696324, -6.662507147608802]}}, {"type": "Feature", "properties": {"norad_id": 66465, "name": "STARLINK-35448", "group": "last-30-days", "lat": 18.349938471406233, "lon": 95.03037726380231, "alt_km": 441.4629779194138, "timestamp": "2025-12-12T05:47:27.524674+00:00", "meta": {"OBJECT_NAME": "STARLINK-35448", "OBJECT_ID": "2025-262K", "EPOCH": "2025-12-11T22:00:01.999584", "MEAN_MOTION": 15.40652816, "ECCENTRICITY": 0.00013927, "INCLINATION": 43.0011, "RA_OF_ASC_NODE": 76.0509, "ARG_OF_PERICENTER": 280.5539, "MEAN_ANOMALY": 104.5037, "EPHEMERIS_TYPE": 0, "CLASSIFICATION_TYPE": "U", "NORAD_CAT_ID": 66465, "ELEMENT_SET_NO": 999, "REV_AT_EPOCH": 550, "BSTAR": 0.00078371032, "MEAN_MOTION_DOT": 0.00032522, "MEAN_MOTION_DDOT": 0}, "tle": {"line1": "1 66465U 25262K   25345.91668981  .00032522  00000+0  78371-3 0  9993", "line2": "2 66465  43.0011  76.0509 0001392 280.5539 104.5037 15.40652816  5500"}}, "geometry": {"type": "Point", "coordinates": [95.03037726380231, 18.349938471406233]}}, {"type": "Feature", "properties": {"norad_id": 66466, "name": "STARLINK-35388", "group": "last-30-days", "lat": 25.980212251408876, "lon": 105.67570076207654, "alt_km": 440.59166229975744, "timestamp": "2025-12-12T05:47:27.524685+00:00", "meta": {"OBJECT_NAME": "STARLINK-35388", "OBJECT_ID": "2025-262L", "EPOCH": "2025-12-11T22:00:01.999584", "MEAN_MOTION": 15.40678169, "ECCENTRICITY": 0.00014199, "INCLINATION": 43.0007, "RA_OF_ASC_NODE": 76.0177, "ARG_OF_PERICENTER": 267.6251, "MEAN_ANOMALY": 129.8838, "EPHEMERIS_TYPE": 0, "CLASSIFICATION_TYPE": "U", "NORAD_CAT_ID": 66466, "ELEMENT_SET_NO": 999, "REV_AT_EPOCH": 550, "BSTAR": 0.00025673912, "MEAN_MOTION_DOT": 0.00010428, "MEAN_MOTION_DDOT": 0}, "tle": {"line1": "1 66466U 25262L   25345.91668981  .00010428  00000+0  25674-3 0  9993", "line2": "2 66466  43.0007  76.0177 0001419 267.6251 129.8838 15.40678169  5502"}}, "geometry": {"type": "Point", "coordinates": [105.67570076207654, 25.980212251408876]}}, {"type": "Feature", "properties": {"norad_id": 66467, "name": "STARLINK-35682", "group": "last-30-days", "lat": 10.226425392316015, "lon": 85.37088868052332, "alt_km": 443.1051215391235, "timestamp": "2025-12-12T05:47:27.524696+00:00", "meta": {"OBJECT_NAME": "STARLINK-35682", "OBJECT_ID": "2025-262M", "EPOCH": "2025-12-11T22:00:01.999584", "MEAN_MOTION": 15.40649488, "ECCENTRICITY": 0.00017561, "INCLINATION": 43.0007, "RA_OF_ASC_NODE": 76.0792, "ARG_OF_PERICENTER": 252.5917, "MEAN_ANOMALY": 120.0734, "EPHEMERIS_TYPE": 0, "CLASSIFICATION_TYPE": "U", "NORAD_CAT_ID": 66467, "ELEMENT_SET_NO": 999, "REV_AT_EPOCH": 550, "BSTAR": 0.00046320149, "MEAN_MOTION_DOT": 0.00019062, "MEAN_MOTION_DDOT": 0}, "tle": {"line1": "1 66467U 25262M   25345.91668981  .00019062  00000+0  46320-3 0  9998", "line2": "2 66467  43.0007  76.0792 0001756 252.5917 120.0734 15.40649488  5502"}}, "geometry": {"type": "Point", "coordinates": [85.37088868052332, 10.226425392316015]}}, {"type": "Feature", "properties": {"norad_id": 66468, "name": "STARLINK-35331", "group": "last-30-days", "lat": 32.7072421547162, "lon": 117.67663086959183, "alt_km": 439.5186750895182, "timestamp": "2025-12-12T05:47:27.524707+00:00", "meta": {"OBJECT_NAME": "STARLINK-35331", "OBJECT_ID": "2025-262N", "EPOCH": "2025-12-11T22:00:01.999584", "MEAN_MOTION": 15.40670845, "ECCENTRICITY": 0.00019608, "INCLINATION": 43.0008, "RA_OF_ASC_NODE": 75.9879, "ARG_OF_PERICENTER": 291.0645, "MEAN_ANOMALY": 118.871, "EPHEMERIS_TYPE": 0, "CLASSIFICATION_TYPE": "U", "NORAD_CAT_ID": 66468, "ELEMENT_SET_NO": 999, "REV_AT_EPOCH": 550, "BSTAR": 0.00069301387, "MEAN_MOTION_DOT": 0.00028727, "MEAN_MOTION_DDOT": 0}, "tle": {"line1": "1 66468U 25262N   25345.91668981  .00028727  00000+0  69301-3 0  9991", "line2": "2 66468  43.0008  75.9879 0001960 291.0645 118.8710 15.40670845  5501"}}, "geometry": {"type": "Point", "coordinates": [117.67663086959183, 32.7072421547162]}}, {"type": "Feature", "properties": {"norad_id": 66469, "name": "STARLINK-35451", "group": "last-30-days", "lat": 40.38081515784897, "lon": -171.9003146774039, "alt_km": 411.4054217011526, "timestamp": "2025-12-12T05:47:27.524718+00:00", "meta": {"OBJECT_NAME": "STARLINK-35451", "OBJECT_ID": "2025-262P", "EPOCH": "2025-12-10T16:12:32.558112", "MEAN_MOTION": 15.50219904, "ECCENTRICITY": 4.921e-05, "INCLINATION": 43.0005, "RA_OF_ASC_NODE": 83.1302, "ARG_OF_PERICENTER": 334.6757, "MEAN_ANOMALY": 25.4079, "EPHEMERIS_TYPE": 0, "CLASSIFICATION_TYPE": "U", "NORAD_CAT_ID": 66469, "ELEMENT_SET_NO": 999, "REV_AT_EPOCH": 524, "BSTAR": -0.0029160526, "MEAN_MOTION_DOT": -0.00165698, "MEAN_MOTION_DDOT": 0}, "tle": {"line1": "1 66469U 25262P   25344.67537683 -.00165698  00000+0 -29161-2 0  9998", "line2": "2 66469  43.0005  83.1302 0000492 334.6757  25.4079 15.50219904  5246"}}, "geometry": {"type": "Point", "coordinates": [-171.9003146774039, 40.38081515784897]}}, {"type": "Feature", "properties": {"norad_id": 66470, "name": "STARLINK-35655", "group": "last-30-days", "lat": 38.14546706955044, "lon": 131.52287136038345, "alt_km": 439.39860116405, "timestamp": "2025-12-12T05:47:27.524731+00:00", "meta": {"OBJECT_NAME": "STARLINK-35655", "OBJECT_ID": "2025-262Q", "EPOCH": "2025-12-11T22:00:01.999584", "MEAN_MOTION": 15.41158414, "ECCENTRICITY": 0.00018184, "INCLINATION": 43.0008, "RA_OF_ASC_NODE": 75.9581, "ARG_OF_PERICENTER": 260.5686, "MEAN_ANOMALY": 161.6399, "EPHEMERIS_TYPE": 0, "CLASSIFICATION_TYPE": "U", "NORAD_CAT_ID": 66470, "ELEMENT_SET_NO": 999, "REV_AT_EPOCH": 550, "BSTAR": -0.019108526, "MEAN_MOTION_DOT": -0.00746805, "MEAN_MOTION_DDOT": 0}, "tle": {"line1": "1 66470U 25262Q   25345.91668981 -.00746805  00000+0 -19109-1 0  9999", "line2": "2 66470  43.0008  75.9581 0001818 260.5686 161.6399 15.41158414  5505"}}, "geometry": {"type": "Point", "coordinates": [131.52287136038345, 38.14546706955044]}}, {"type": "Feature", "properties": {"norad_id": 66471, "name": "STARLINK-35569", "group": "last-30-days", "lat": 41.66072997122853, "lon": 146.76304426937125, "alt_km": 435.69445824852755, "timestamp": "2025-12-12T05:47:27.524741+00:00", "meta": {"OBJECT_NAME": "STARLINK-35569", "OBJECT_ID": "2025-262R", "EPOCH": "2025-12-11T22:00:01.999584", "MEAN_MOTION": 15.43188774, "ECCENTRICITY": 0.00012342, "INCLINATION": 43.0004, "RA_OF_ASC_NODE": 75.9326, "ARG_OF_PERICENTER": 299.9093, "MEAN_ANOMALY": 132.7903, "EPHEMERIS_TYPE": 0, "CLASSIFICATION_TYPE": "U", "NORAD_CAT_ID": 66471, "ELEMENT_SET_NO": 999, "REV_AT_EPOCH": 550, "BSTAR": -0.058366253, "MEAN_MOTION_DOT": -0.0236069, "MEAN_MOTION_DDOT": 0}, "tle": {"line1": "1 66471U 25262R   25345.91668981 -.02360690  00000+0 -58366-1 0  9994", "line2": "2 66471  43.0004  75.9326 0001234 299.9093 132.7903 15.43188774  5503"}}, "geometry": {"type": "Point", "coordinates": [146.76304426937125, 41.66072997122853]}}, {"type": "Feature", "properties": {"norad_id": 66472, "name": "STARLINK-35567", "group": "last-30-days", "lat": 42.53175326269609, "lon": 174.13847638806826, "alt_km": 428.07476155287804, "timestamp": "2025-12-12T05:47:27.524752+00:00", "meta": {"OBJECT_NAME": "STARLINK-35567", "OBJECT_ID": "2025-262S", "EPOCH": "2025-12-11T22:00:01.999584", "MEAN_MOTION": 15.45675845, "ECCENTRICITY": 0.00012868, "INCLINATION": 43.0009, "RA_OF_ASC_NODE": 75.8903, "ARG_OF_PERICENTER": 281.4917, "MEAN_ANOMALY": 168.4517, "EPHEMERIS_TYPE": 0, "CLASSIFICATION_TYPE": "U", "NORAD_CAT_ID": 66472, "ELEMENT_SET_NO": 999, "REV_AT_EPOCH": 550, "BSTAR": -0.047882051, "MEAN_MOTION_DOT": -0.02097916, "MEAN_MOTION_DDOT": 0}, "tle": {"line1": "1 66472U 25262S   25345.91668981 -.02097916  00000+0 -47882-1 0  9994", "line2": "2 66472  43.0009  75.8903 0001286 281.4917 168.4517 15.45675845  5506"}}, "geometry": {"type": "Point", "coordinates": [174.13847638806826, 42.53175326269609]}}, {"type": "Feature", "properties": {"norad_id": 66473, "name": "STARLINK-35568", "group": "last-30-days", "lat": 37.8241154068369, "lon": -162.46316292365648, "alt_km": 410.4836301195546, "timestamp": "2025-12-12T05:47:27.524763+00:00", "meta": {"OBJECT_NAME": "STARLINK-35568", "OBJECT_ID": "2025-262T", "EPOCH": "2025-12-11T07:39:08.069760", "MEAN_MOTION": 15.50526439, "ECCENTRICITY": 0.00047596, "INCLINATION": 42.9998, "RA_OF_ASC_NODE": 79.3576, "ARG_OF_PERICENTER": 252.6139, "MEAN_ANOMALY": 107.4201, "EPHEMERIS_TYPE": 0, "CLASSIFICATION_TYPE": "U", "NORAD_CAT_ID": 66473, "ELEMENT_SET_NO": 999, "REV_AT_EPOCH": 534, "BSTAR": 0.0038259112, "MEAN_MOTION_DOT": 0.00230458, "MEAN_MOTION_DDOT": 0}, "tle": {"line1": "1 66473U 25262T   25345.31884340  .00230458  00000+0  38259-2 0  9993", "line2": "2 66473  42.9998  79.3576 0004759 252.6139 107.4201 15.50526439  5346"}}, "geometry": {"type": "Point", "coordinates": [-162.46316292365648, 37.8241154068369]}}]}